CCSDS_OMM_VERS = 2.0
CREATION_DATE  = 
ORIGINATOR     = 

OBJECT_NAME    = ISS (ZARYA)
OBJECT_ID      = 1998-067A
CENTER_NAME    = EARTH
REF_FRAME      = TEME
TIME_SYSTEM    = UTC
MEAN_ELEMENT_THEORY = SGP/SGP4

EPOCH          = 2026-04-05T19:28:26.281920
MEAN_MOTION    = 15.48791307
ECCENTRICITY   = .0006355
INCLINATION    = 51.6329
RA_OF_ASC_NODE = 298.2672
ARG_OF_PERICENTER = 276.3215
MEAN_ANOMALY   = 83.7049

EPHEMERIS_TYPE = 0
CLASSIFICATION_TYPE = U
NORAD_CAT_ID   = 25544
ELEMENT_SET_NO = 999
REV_AT_EPOCH   = 56053
BSTAR          = .1599E-3
MEAN_MOTION_DOT = .8309E-4
MEAN_MOTION_DDOT = 0

CCSDS_OMM_VERS = 2.0
CREATION_DATE  = 
ORIGINATOR     = 

OBJECT_NAME    = POISK
OBJECT_ID      = 2009-060A
CENTER_NAME    = EARTH
REF_FRAME      = TEME
TIME_SYSTEM    = UTC
MEAN_ELEMENT_THEORY = SGP/SGP4

EPOCH          = 2026-04-05T19:28:26.281920
MEAN_MOTION    = 15.48791307
ECCENTRICITY   = .0006355
INCLINATION    = 51.6329
RA_OF_ASC_NODE = 298.2672
ARG_OF_PERICENTER = 276.3215
MEAN_ANOMALY   = 83.7049

EPHEMERIS_TYPE = 0
CLASSIFICATION_TYPE = U
NORAD_CAT_ID   = 36086
ELEMENT_SET_NO = 999
REV_AT_EPOCH   = 56036
BSTAR          = .1599E-3
MEAN_MOTION_DOT = .8309E-4
MEAN_MOTION_DDOT = 0

CCSDS_OMM_VERS = 2.0
CREATION_DATE  = 
ORIGINATOR     = 

OBJECT_NAME    = CSS (TIANHE)
OBJECT_ID      = 2021-035A
CENTER_NAME    = EARTH
REF_FRAME      = TEME
TIME_SYSTEM    = UTC
MEAN_ELEMENT_THEORY = SGP/SGP4

EPOCH          = 2026-04-05T21:35:59.578368
MEAN_MOTION    = 15.61975413
ECCENTRICITY   = .0003645
INCLINATION    = 41.4683
RA_OF_ASC_NODE = 42.4237
ARG_OF_PERICENTER = 135.7211
MEAN_ANOMALY   = 224.3921

EPHEMERIS_TYPE = 0
CLASSIFICATION_TYPE = U
NORAD_CAT_ID   = 48274
ELEMENT_SET_NO = 999
REV_AT_EPOCH   = 28186
BSTAR          = .33283E-3
MEAN_MOTION_DOT = .29649E-3
MEAN_MOTION_DDOT = 0

CCSDS_OMM_VERS = 2.0
CREATION_DATE  = 
ORIGINATOR     = 

OBJECT_NAME    = ISS (NAUKA)
OBJECT_ID      = 2021-066A
CENTER_NAME    = EARTH
REF_FRAME      = TEME
TIME_SYSTEM    = UTC
MEAN_ELEMENT_THEORY = SGP/SGP4

EPOCH          = 2026-04-05T19:28:26.281920
MEAN_MOTION    = 15.48791307
ECCENTRICITY   = .0006355
INCLINATION    = 51.6329
RA_OF_ASC_NODE = 298.2672
ARG_OF_PERICENTER = 276.3215
MEAN_ANOMALY   = 83.7049

EPHEMERIS_TYPE = 0
CLASSIFICATION_TYPE = U
NORAD_CAT_ID   = 49044
ELEMENT_SET_NO = 999
REV_AT_EPOCH   = 56040
BSTAR          = .1599E-3
MEAN_MOTION_DOT = .8309E-4
MEAN_MOTION_DDOT = 0

CCSDS_OMM_VERS = 2.0
CREATION_DATE  = 
ORIGINATOR     = 

OBJECT_NAME    = FREGAT DEB
OBJECT_ID      = 2011-037PF
CENTER_NAME    = EARTH
REF_FRAME      = TEME
TIME_SYSTEM    = UTC
MEAN_ELEMENT_THEORY = SGP/SGP4

EPOCH          = 2026-04-05T12:17:38.609088
MEAN_MOTION    = 12.40936816
ECCENTRICITY   = .09550473
INCLINATION    = 51.6426
RA_OF_ASC_NODE = 220.2066
ARG_OF_PERICENTER = 120.8974
MEAN_ANOMALY   = 248.9327

EPHEMERIS_TYPE = 0
CLASSIFICATION_TYPE = U
NORAD_CAT_ID   = 49271
ELEMENT_SET_NO = 999
REV_AT_EPOCH   = 21602
BSTAR          = .12423119E-1
MEAN_MOTION_DOT = .8541E-4
MEAN_MOTION_DDOT = 0

CCSDS_OMM_VERS = 2.0
CREATION_DATE  = 
ORIGINATOR     = 

OBJECT_NAME    = CSS (WENTIAN)
OBJECT_ID      = 2022-085A
CENTER_NAME    = EARTH
REF_FRAME      = TEME
TIME_SYSTEM    = UTC
MEAN_ELEMENT_THEORY = SGP/SGP4

EPOCH          = 2026-04-05T21:35:59.578368
MEAN_MOTION    = 15.61975413
ECCENTRICITY   = .0003645
INCLINATION    = 41.4683
RA_OF_ASC_NODE = 42.4237
ARG_OF_PERICENTER = 135.7211
MEAN_ANOMALY   = 224.3921

EPHEMERIS_TYPE = 0
CLASSIFICATION_TYPE = U
NORAD_CAT_ID   = 53239
ELEMENT_SET_NO = 999
REV_AT_EPOCH   = 28213
BSTAR          = .33283E-3
MEAN_MOTION_DOT = .29649E-3
MEAN_MOTION_DDOT = 0

CCSDS_OMM_VERS = 2.0
CREATION_DATE  = 
ORIGINATOR     = 

OBJECT_NAME    = CSS (MENGTIAN)
OBJECT_ID      = 2022-143A
CENTER_NAME    = EARTH
REF_FRAME      = TEME
TIME_SYSTEM    = UTC
MEAN_ELEMENT_THEORY = SGP/SGP4

EPOCH          = 2026-04-05T21:35:59.578368
MEAN_MOTION    = 15.61975413
ECCENTRICITY   = .0003645
INCLINATION    = 41.4683
RA_OF_ASC_NODE = 42.4237
ARG_OF_PERICENTER = 135.7211
MEAN_ANOMALY   = 224.3921

EPHEMERIS_TYPE = 0
CLASSIFICATION_TYPE = U
NORAD_CAT_ID   = 54216
ELEMENT_SET_NO = 999
REV_AT_EPOCH   = 28213
BSTAR          = .33283E-3
MEAN_MOTION_DOT = .29649E-3
MEAN_MOTION_DDOT = 0

CCSDS_OMM_VERS = 2.0
CREATION_DATE  = 
ORIGINATOR     = 

OBJECT_NAME    = TIANZHOU-9
OBJECT_ID      = 2025-149A
CENTER_NAME    = EARTH
REF_FRAME      = TEME
TIME_SYSTEM    = UTC
MEAN_ELEMENT_THEORY = SGP/SGP4

EPOCH          = 2026-04-05T21:35:59.578368
MEAN_MOTION    = 15.61975413
ECCENTRICITY   = .0003645
INCLINATION    = 41.4683
RA_OF_ASC_NODE = 42.4237
ARG_OF_PERICENTER = 135.7211
MEAN_ANOMALY   = 224.3921

EPHEMERIS_TYPE = 0
CLASSIFICATION_TYPE = U
NORAD_CAT_ID   = 64786
ELEMENT_SET_NO = 999
REV_AT_EPOCH   = 28213
BSTAR          = .33283E-3
MEAN_MOTION_DOT = .29649E-3
MEAN_MOTION_DDOT = 0

CCSDS_OMM_VERS = 2.0
CREATION_DATE  = 
ORIGINATOR     = 

OBJECT_NAME    = PROGRESS-MS 32
OBJECT_ID      = 2025-204A
CENTER_NAME    = EARTH
REF_FRAME      = TEME
TIME_SYSTEM    = UTC
MEAN_ELEMENT_THEORY = SGP/SGP4

EPOCH          = 2026-04-05T13:16:46.804800
MEAN_MOTION    = 15.48786980
ECCENTRICITY   = .00063514
INCLINATION    = 51.6328
RA_OF_ASC_NODE = 299.5432
ARG_OF_PERICENTER = 274.8255
MEAN_ANOMALY   = 85.2008

EPHEMERIS_TYPE = 0
CLASSIFICATION_TYPE = U
NORAD_CAT_ID   = 65586
ELEMENT_SET_NO = 999
REV_AT_EPOCH   = 55450
BSTAR          = .16419769E-3
MEAN_MOTION_DOT = .8543E-4
MEAN_MOTION_DDOT = 0

CCSDS_OMM_VERS = 2.0
CREATION_DATE  = 
ORIGINATOR     = 

OBJECT_NAME    = YOTSUBA-KULOVER
OBJECT_ID      = 1998-067XN
CENTER_NAME    = EARTH
REF_FRAME      = TEME
TIME_SYSTEM    = UTC
MEAN_ELEMENT_THEORY = SGP/SGP4

EPOCH          = 2026-04-05T16:41:46.695840
MEAN_MOTION    = 16.00515818
ECCENTRICITY   = .0008666
INCLINATION    = 51.6141
RA_OF_ASC_NODE = 275.5791
ARG_OF_PERICENTER = 276.0110
MEAN_ANOMALY   = 83.9912

EPHEMERIS_TYPE = 0
CLASSIFICATION_TYPE = U
NORAD_CAT_ID   = 65941
ELEMENT_SET_NO = 999
REV_AT_EPOCH   = 2779
BSTAR          = .12875E-2
MEAN_MOTION_DOT = .696812E-2
MEAN_MOTION_DDOT = .2327E-3

CCSDS_OMM_VERS = 2.0
CREATION_DATE  = 
ORIGINATOR     = 

OBJECT_NAME    = BOTAN
OBJECT_ID      = 1998-067XQ
CENTER_NAME    = EARTH
REF_FRAME      = TEME
TIME_SYSTEM    = UTC
MEAN_ELEMENT_THEORY = SGP/SGP4

EPOCH          = 2026-04-05T18:37:02.440416
MEAN_MOTION    = 15.98819258
ECCENTRICITY   = .0008519
INCLINATION    = 51.6174
RA_OF_ASC_NODE = 275.3932
ARG_OF_PERICENTER = 270.9470
MEAN_ANOMALY   = 89.0564

EPHEMERIS_TYPE = 0
CLASSIFICATION_TYPE = U
NORAD_CAT_ID   = 65943
ELEMENT_SET_NO = 999
REV_AT_EPOCH   = 2780
BSTAR          = .12574E-2
MEAN_MOTION_DOT = .617649E-2
MEAN_MOTION_DDOT = .17787E-3

CCSDS_OMM_VERS = 2.0
CREATION_DATE  = 
ORIGINATOR     = 

OBJECT_NAME    = HRC MONOBLOCK CAMERA
OBJECT_ID      = 1998-067XR
CENTER_NAME    = EARTH
REF_FRAME      = TEME
TIME_SYSTEM    = UTC
MEAN_ELEMENT_THEORY = SGP/SGP4

EPOCH          = 2026-04-05T19:08:43.656864
MEAN_MOTION    = 15.65340581
ECCENTRICITY   = .0003872
INCLINATION    = 51.6275
RA_OF_ASC_NODE = 288.4191
ARG_OF_PERICENTER = 229.5804
MEAN_ANOMALY   = 130.4854

EPHEMERIS_TYPE = 0
CLASSIFICATION_TYPE = U
NORAD_CAT_ID   = 66052
ELEMENT_SET_NO = 999
REV_AT_EPOCH   = 2663
BSTAR          = .66088E-3
MEAN_MOTION_DOT = .67135E-3
MEAN_MOTION_DDOT = 0

